NORAD_CAT_ID,OBJECT_NAME,OBJECT_TYPE,EPOCH,MEAN_MOTION,ECCENTRICITY,INCLINATION,RA_OF_ASC_NODE,ARG_OF_PERICENTER,MEAN_ANOMALY,BSTAR,MEAN_MOTION_DOT,MEAN_MOTION_DDOT,TLE_LINE0,TLE_LINE1,TLE_LINE2,SEMIMAJOR_AXIS,PERIOD,APOGEE,PERIGEE,DECAYED
53019.0,STARLINK-4282,PAYLOAD,2022-08-15 16:00:00,15.73154459,0.0002453,53.2184,185.9737,15.499,106.3943,0.00036572,0.00050922,0.0,0 STARLINK-4282,1 53019U 22076AK  22227.66667824  .00050922  00000-0  36572-3 0  9999,2 53019  53.2184 185.9737 0002453  15.4990 106.3943 15.73154459  6652,6728.025,91.536,351.54,348.24,0.0
53019.0,STARLINK-4282,PAYLOAD,2022-08-15 22:00:00,15.73189936,0.0002415,53.2187,184.7366,18.4785,80.0771,0.00031281,0.00043492,0.0,0 STARLINK-4282,1 53019U 22076AK  22227.91667824  .00043492  00000-0  31281-3 0  9993,2 53019  53.2187 184.7366 0002415  18.4785  80.0771 15.73189936  1305,6727.924,91.534,351.414,348.164,0.0
53019.0,STARLINK-4282,PAYLOAD,2022-08-16 14:00:01,15.732033,0.0002491,53.2185,181.4384,12.6304,263.8023,0.00013391,0.00018217,0.0,0 STARLINK-4282,1 53019U 22076AK  22228.58334491  .00018217  00000-0  13391-3 0  9997,2 53019  53.2185 181.4384 0002491  12.6304 263.8023 15.73203300  6807,6727.886,91.533,351.427,348.075,0.0
53019.0,STARLINK-4282,PAYLOAD,2022-08-16 22:00:00,15.73255026,0.0002395,53.2184,179.7888,13.2487,352.1039,-0.00025925,-0.00036937,0.0,0 STARLINK-4282,1 53019U 22076AK  22228.91667824 -.00036937  00000-0 -25925-3 0  9990,2 53019  53.2184 179.7888 0002395  13.2487 352.1039 15.73255026  1308,6727.738,91.53,351.215,347.992,0.0
53019.0,STARLINK-4282,PAYLOAD,2022-08-17 14:00:01,15.73172667,0.0002481,53.2178,176.4902,14.733,168.5301,-5.0043e-05,-7.631e-05,0.0,0 STARLINK-4282,1 53019U 22076AK  22229.58334491 -.00007631  00000-0 -50043-4 0  9994,2 53019  53.2178 176.4902 0002481  14.7330 168.5301 15.73172667  1301,6727.973000000001,91.535,351.50699999999995,348.1690000000001,0.0
53019.0,STARLINK-4282,PAYLOAD,2022-08-18 08:00:01,15.73242308,0.0002701,53.2177,172.7807,19.169,94.1576,-1.9305e-05,-3.336e-05,0.0,0 STARLINK-4282,1 53019U 22076AK  22230.33334491 -.00003336  00000-0 -19305-4 0  9993,2 53019  53.2177 172.7807 0002701  19.1690  94.1576 15.73242308  7074,6727.775,91.531,351.457,347.82199999999995,0.0
53019.0,STARLINK-4282,PAYLOAD,2022-08-18 14:00:01,15.73217902,0.0002514,53.2179,171.5419,21.7124,68.369,0.00016662,0.00022846,0.0,0 STARLINK-4282,1 53019U 22076AK  22230.58334491  .00022846  00000-0  16662-3 0  9997,2 53019  53.2179 171.5419 0002514  21.7124  68.3690 15.73217902  1307,6727.844,91.532,351.401,348.01800000000014,0.0
53019.0,STARLINK-4282,PAYLOAD,2022-08-18 22:00:00,15.73286598,0.0002440999999999,53.2178,169.8925,23.9345,155.0947,-0.00060879,-0.00085527,0.0,0 STARLINK-4282,1 53019U 22076AK  22230.91667824 -.00085527  00000-0 -60879-3 0  9999,2 53019  53.2178 169.8925 0002441  23.9345 155.0947 15.73286598  1302,6727.648,91.528,351.156,347.871,0.0
53019.0,STARLINK-4282,PAYLOAD,2022-08-19 14:00:01,15.73142454,0.0002355,53.2171,166.5933,20.582,336.3951,0.0001618,0.00022092,0.0,0 STARLINK-4282,1 53019U 22076AK  22231.58334491  .00022092  00000-0  16180-3 0  9996,2 53019  53.2171 166.5933 0002355  20.5820 336.3951 15.73142454  1304,6728.059,91.537,351.509,348.34,0.0
53019.0,STARLINK-4282,PAYLOAD,2022-08-19 16:00:00,15.7311017,0.0002308,53.2169,166.1807,20.8098,88.3946,0.00072011,0.00101283,0.0,0 STARLINK-4282,1 53019U 22076AK  22231.66667824  .00101283  00000-0  72011-3 0  9999,2 53019  53.2169 166.1807 0002308  20.8098  88.3946 15.73110170  7286,6728.151,91.538,351.569,348.463,0.0
53019.0,STARLINK-4282,PAYLOAD,2022-08-19 20:00:01,15.73145965,0.0002334999999999,53.2173,165.356,23.7223,309.8885,0.00047399,0.00066278,0.0,0 STARLINK-4282,1 53019U 22076AK  22231.83334491  .00066278  00000-0  47399-3 0  9994,2 53019  53.2173 165.3560 0002335  23.7223 309.8885 15.73145965  1300,6728.049,91.536,351.485,348.343,0.0
53019.0,STARLINK-4282,PAYLOAD,2022-08-20 08:00:01,15.73133731,0.0002571,53.2171,162.884,16.3285,270.6009,0.00019441,0.00026675,0.0,0 STARLINK-4282,1 53019U 22076AK  22232.33334491  .00026675  00000-0  19441-3 0  9994,2 53019  53.2171 162.8840 0002571  16.3285 270.6009 15.73133731  7395,6728.084,91.537,351.67900000000014,348.219,0.0
53019.0,STARLINK-4282,PAYLOAD,2022-08-20 14:00:01,15.73126491,0.0002614,53.2178,161.6276,22.3509,241.2676,0.00087164,0.00123138,0.0,0 STARLINK-4282,1 53019U 22076AK  22232.58334491  .00123138  00000-0  87164-3 0  9990,2 53019  53.2178 161.6276 0002614  22.3509 241.2676 15.73126491  1300,6728.105,91.537,351.728,348.211,0.0
53019.0,STARLINK-4282,PAYLOAD,2022-08-20 22:00:00,15.73249602,0.0002318,53.2176,159.9833,25.9827,326.6302,-0.0017886,-0.00245037,0.0,0 STARLINK-4282,1 53019U 22076AK  22232.91667824 -.00245037  00000-0 -17886-2 0  9994,2 53019  53.2176 159.9833 0002318  25.9827 326.6302 15.73249602  1304,6727.754,91.53,351.17800000000005,348.059,0.0
53019.0,STARLINK-4282,PAYLOAD,2022-08-21 06:00:00,15.731806900000002,0.0002518,53.2168,158.3483,14.6639,66.8782,-6.8829e-06,-1.587e-05,0.0,0 STARLINK-4282,1 53019U 22076AK  22233.25001157 -.00001587  00000-0 -68829-5 0  9999,2 53019  53.2168 158.3483 0002518  14.6639  66.8782 15.73180690  7534,6727.95,91.534,351.509,348.121,0.0
53019.0,STARLINK-4282,PAYLOAD,2022-08-21 14:00:01,15.73162904,0.0002242,53.2169,156.6968,13.3959,157.0629,0.00045471,0.00063582,0.0,0 STARLINK-4282,1 53019U 22076AK  22233.58334491  .00063582  00000-0  45471-3 0  9992,2 53019  53.2169 156.6968 0002242  13.3959 157.0629 15.73162904  1309,6728.001,91.535,351.374,348.358,0.0
53019.0,STARLINK-4282,PAYLOAD,2022-08-21 22:00:00,15.73229861,0.0002253,53.2172,155.048,16.6506,242.7206,0.00014155,0.00019317,0.0,0 STARLINK-4282,1 53019U 22076AK  22233.91667824  .00019317  00000-0  14155-3 0  9990,2 53019  53.2172 155.0480 0002253  16.6506 242.7206 15.73229861  1300,6727.81,91.531,351.191,348.159,0.0
53019.0,STARLINK-4282,PAYLOAD,2022-08-22 06:00:00,15.73239298,0.0002558,53.2172,153.4002,15.0732,333.2371,-0.00027652,-0.00039321,0.0,0 STARLINK-4282,1 53019U 22076AK  22234.25001157 -.00039321  00000-0 -27652-3 0  9994,2 53019  53.2172 153.4002 0002558  15.0732 333.2371 15.73239298  7696,6727.783,91.531,351.369,347.927,0.0
53019.0,STARLINK-4282,PAYLOAD,2022-08-22 12:00:00,15.73222038,0.0002349,53.2175,152.1614,17.7012,307.3376,-0.00079397,-0.00110717,0.0,0 STARLINK-4282,1 53019U 22076AK  22234.50001157 -.00110717  00000-0 -79397-3 0  9994,2 53019  53.2175 152.1614 0002349  17.7012 307.3376 15.73222038  1305,6727.831999999999,91.532,351.278,348.117,0.0
53019.0,STARLINK-4282,PAYLOAD,2022-08-22 22:00:00,15.73169018,0.0002367,53.2174,150.1001,18.0426,148.1167,3.018e-05,3.611e-05,0.0,0 STARLINK-4282,1 53019U 22076AK  22234.91667824  .00003611  00000-0  30180-4 0  9998,2 53019  53.2174 150.1001 0002367  18.0426 148.1167 15.73169018  7791,6727.984,91.535,351.441,348.256,0.0
53019.0,STARLINK-4282,PAYLOAD,2022-08-23 14:00:01,15.73166367,0.000226,53.217,146.8006,18.9862,324.9589,0.00050312,0.00070486,0.0,0 STARLINK-4282,1 53019U 22076AK  22235.58334491  .00070486  00000-0  50312-3 0  9995,2 53019  53.2170 146.8006 0002260  18.9862 324.9589 15.73166367  1306,6727.991,91.535,351.37699999999984,348.336,0.0
53019.0,STARLINK-4282,PAYLOAD,2022-08-23 20:00:01,15.73222341,0.0002266,53.2174,145.5639,20.5947,300.0269,9.2959e-05,0.00012457,0.0,0 STARLINK-4282,1 53019U 22076AK  22235.83334491  .00012457  00000-0  92959-4 0  9991,2 53019  53.2174 145.5639 0002266  20.5947 300.0269 15.73222341  7948,6727.831,91.532,351.221,348.172,0.0
53019.0,STARLINK-4282,PAYLOAD,2022-08-23 22:00:01,15.73231539,0.0002348,53.2169,145.1522,20.1177,52.8063,-2.395800000000001e-05,-3.988e-05,0.0,0 STARLINK-4282,1 53019U 22076AK  22235.91668981 -.00003988  00000-0 -23958-4 0  9998,2 53019  53.2169 145.1522 0002348  20.1177  52.8063 15.73231539  1308,6727.805,91.531,351.25,348.091,0.0
53019.0,STARLINK-4282,PAYLOAD,2022-08-24 14:00:01,15.73235569,0.000227,53.2159,141.8524,16.5303,234.2564,-0.00013127,-0.00019033,0.0,0 STARLINK-4282,1 53019U 22076AK  22236.58334491 -.00019033  00000-0 -13127-3 0  9992,2 53019  53.2159 141.8524 0002270  16.5303 234.2564 15.73235569  1305,6727.794,91.531,351.186,348.13199999999995,0.0
53019.0,STARLINK-4282,PAYLOAD,2022-08-24 22:00:00,15.73233192,0.000237,53.2158,140.204,16.1742,323.5723,-3.5284e-05,-5.578e-05,0.0,0 STARLINK-4282,1 53019U 22076AK  22236.91667824 -.00005578  00000-0 -35284-4 0  9996,2 53019  53.2158 140.2040 0002370  16.1742 323.5723 15.73233192  1303,6727.801,91.531,351.26,348.071,0.0
53019.0,STARLINK-4282,PAYLOAD,2022-08-25 14:00:01,15.73174571,0.0002285,53.2152,136.9039,21.5781,136.0783,0.00033592,0.00046738,0.0,0 STARLINK-4282,1 53019U 22076AK  22237.58334491  .00046738  00000-0  33592-3 0  9991,2 53019  53.2152 136.9039 0002285  21.5781 136.0783 15.73174571  1303,6727.968000000003,91.535,351.37,348.295,0.0
53019.0,STARLINK-4282,PAYLOAD,2022-08-25 22:00:00,15.73216284,0.0002445,53.2156,135.2558,23.9601,222.6123,2.3943e-05,2.742e-05,0.0,0 STARLINK-4282,1 53019U 22076AK  22237.91667824  .00002742  00000-0  23943-4 0  9994,2 53019  53.2156 135.2558 0002445  23.9601 222.6123 15.73216284  1308,6727.849,91.532,351.3590000000001,348.069,0.0
53019.0,STARLINK-4282,PAYLOAD,2022-08-26 14:00:01,15.73199673,0.0002274,53.2158,131.9553,16.7918,47.7918,-3.8872000000000015e-06,-1.167e-05,0.0,0 STARLINK-4282,1 53019U 22076AK  22238.58335648 -.00001167  00000-0 -38872-5 0  9994,2 53019  53.2158 131.9553 0002274  16.7918  47.7918 15.73199673  1309,6727.896,91.533,351.291,348.231,0.0
53019.0,STARLINK-4282,PAYLOAD,2022-08-26 22:00:00,15.73224673,0.0002472,53.2158,130.3072,19.0514,134.3899,-0.00037588,-0.00053106,0.0,0 STARLINK-4282,1 53019U 22076AK  22238.91667824 -.00053106  00000-0 -37588-3 0  9996,2 53019  53.2158 130.3072 0002472  19.0514 134.3899 15.73224673  1306,6727.825,91.532,351.353,348.027,0.0
